{"type": "FeatureCollection", "features": [ {"type": "Feature", "properties": {"norad_id": 40118, "name": "GAOFEN-2", "group": "resource", "lat": -14.679342910624273, "lon": 57.167859815843364, "alt_km": 633.3746749821366, "timestamp": "2025-12-21T20:41:07.642846+00:00", "meta": {"OBJECT_NAME": "GAOFEN-2", "OBJECT_ID": "2014-049A", "EPOCH": "2025-12-21T14:15:52.504416", "MEAN_MOTION": 14.80623205, "ECCENTRICITY": 0.00087681, "INCLINATION": 98.0377, "RA_OF_ASC_NODE": 54.7785, "ARG_OF_PERICENTER": 88.4762, "MEAN_ANOMALY": 271.7455, "EPHEMERIS_TYPE": 0, "CLASSIFICATION_TYPE": "U", "NORAD_CAT_ID": 40118, "ELEMENT_SET_NO": 999, "REV_AT_EPOCH": 61295, "BSTAR": 0.00011381588, "MEAN_MOTION_DOT": 8.21e-06, "MEAN_MOTION_DDOT": 0}, "tle": {"line1": "1 40118U 14049A   25355.59435769  .00000821  00000+0  11382-3 0  9998", "line2": "2 40118  98.0377  54.7785 0008768  88.4762 271.7455 14.80623205612955"}}, "geometry": {"type": "Point", "coordinates": [57.167859815843364, -14.679342910624273]}}, {"type": "Feature", "properties": {"norad_id": 40143, "name": "YAOGAN-21", "group": "resource", "lat": -76.3820185864681, "lon": 70.10567858172534, "alt_km": 501.88989594817576, "timestamp": "2025-12-21T20:41:07.642856+00:00", "meta": {"OBJECT_NAME": "YAOGAN-21", "OBJECT_ID": "2014-053A", "EPOCH": "2025-12-21T14:43:28.108992", "MEAN_MOTION": 15.23757887, "ECCENTRICITY": 0.00089796, "INCLINATION": 97.1739, "RA_OF_ASC_NODE": 38.5412, "ARG_OF_PERICENTER": 12.7847, "MEAN_ANOMALY": 347.3616, "EPHEMERIS_TYPE": 0, "CLASSIFICATION_TYPE": "U", "NORAD_CAT_ID": 40143, "ELEMENT_SET_NO": 999, "REV_AT_EPOCH": 62789, "BSTAR": 0.00018727559, "MEAN_MOTION_DOT": 4.44e-05, "MEAN_MOTION_DDOT": 0}, "tle": {"line1": "1 40143U 14053A   25355.61351978  .00004440  00000+0  18728-3 0  9995", "line2": "2 40143  97.1739  38.5412 0008979  12.7847 347.3616 15.23757887627890"}}, "geometry": {"type": "Point", "coordinates": [70.10567858172534, -76.3820185864681]}}, {"type": "Feature", "properties": {"norad_id": 40275, "name": "YAOGAN-22", "group": "resource", "lat": 47.69325147797018, "lon": -28.550938906505746, "alt_km": 1197.8742498849306, "timestamp": "2025-12-21T20:41:07.642865+00:00", "meta": {"OBJECT_NAME": "YAOGAN-22", "OBJECT_ID": "2014-063A", "EPOCH": "2025-12-21T09:04:09.447168", "MEAN_MOTION": 13.15522911, "ECCENTRICITY": 0.00060375, "INCLINATION": 100.7428, "RA_OF_ASC_NODE": 138.9195, "ARG_OF_PERICENTER": 227.5245, "MEAN_ANOMALY": 132.5356, "EPHEMERIS_TYPE": 0, "CLASSIFICATION_TYPE": "U", "NORAD_CAT_ID": 40275, "ELEMENT_SET_NO": 999, "REV_AT_EPOCH": 53643, "BSTAR": 4.2583446e-05, "MEAN_MOTION_DOT": -3.1e-07, "MEAN_MOTION_DDOT": 0}, "tle": {"line1": "1 40275U 14063A   25355.37788712 -.00000031  00000+0  42583-4 0  9995", "line2": "2 40275 100.7428 138.9195 0006037 227.5245 132.5356 13.15522911536437"}}, "geometry": {"type": "Point", "coordinates": [-28.550938906505746, 47.69325147797018]}}, {"type": "Feature", "properties": {"norad_id": 40298, "name": "ASNARO", "group": "resource", "lat": -14.216341944720051, "lon": -110.29121146082775, "alt_km": 512.0549824730597, "timestamp": "2025-12-21T20:41:07.642874+00:00", "meta": {"OBJECT_NAME": "ASNARO", "OBJECT_ID": "2014-070A", "EPOCH": "2025-12-21T15:05:35.176704", "MEAN_MOTION": 15.19663983, "ECCENTRICITY": 0.00057022, "INCLINATION": 97.3646, "RA_OF_ASC_NODE": 71.3592, "ARG_OF_PERICENTER": 97.9983, "MEAN_ANOMALY": 262.19, "EPHEMERIS_TYPE": 0, "CLASSIFICATION_TYPE": "U", "NORAD_CAT_ID": 40298, "ELEMENT_SET_NO": 999, "REV_AT_EPOCH": 61704, "BSTAR": 0.00049047371, "MEAN_MOTION_DOT": 0.00010406, "MEAN_MOTION_DDOT": 0}, "tle": {"line1": "1 40298U 14070A   25355.62887936  .00010406  00000+0  49047-3 0  9991", "line2": "2 40298  97.3646  71.3592 0005702  97.9983 262.1900 15.19663983617045"}}, "geometry": {"type": "Point", "coordinates": [-110.29121146082775, -14.216341944720051]}}, {"type": "Feature", "properties": {"norad_id": 40310, "name": "YAOGAN-24", "group": "resource", "lat": -4.130022122148887, "lon": -53.58675451067552, "alt_km": 641.8514874548491, "timestamp": "2025-12-21T20:41:07.642883+00:00", "meta": {"OBJECT_NAME": "YAOGAN-24", "OBJECT_ID": "2014-072A", "EPOCH": "2025-12-21T14:58:31.591200", "MEAN_MOTION": 14.7619505, "ECCENTRICITY": 0.00151349, "INCLINATION": 98.1227, "RA_OF_ASC_NODE": 126.765, "ARG_OF_PERICENTER": 111.3508, "MEAN_ANOMALY": 248.9318, "EPHEMERIS_TYPE": 0, "CLASSIFICATION_TYPE": "U", "NORAD_CAT_ID": 40310, "ELEMENT_SET_NO": 999, "REV_AT_EPOCH": 59752, "BSTAR": 0.00015738383, "MEAN_MOTION_DOT": 1.037e-05, "MEAN_MOTION_DDOT": 0}, "tle": {"line1": "1 40310U 14072A   25355.62397675  .00001037  00000+0  15738-3 0  9994", "line2": "2 40310  98.1227 126.7650 0015134 111.3508 248.9318 14.76195050597520"}}, "geometry": {"type": "Point", "coordinates": [-53.58675451067552, -4.130022122148887]}}, {"type": "Feature", "properties": {"norad_id": 40336, "name": "CBERS 4", "group": "resource", "lat": 30.411484292082466, "lon": 48.63331740265373, "alt_km": 771.267427430781, "timestamp": "2025-12-21T20:41:07.642892+00:00", "meta": {"OBJECT_NAME": "CBERS 4", "OBJECT_ID": "2014-079A", "EPOCH": "2025-12-21T13:51:04.476960", "MEAN_MOTION": 14.35521353, "ECCENTRICITY": 0.00018326, "INCLINATION": 98.33, "RA_OF_ASC_NODE": 53.2918, "ARG_OF_PERICENTER": 102.1362, "MEAN_ANOMALY": 258.003, "EPHEMERIS_TYPE": 0, "CLASSIFICATION_TYPE": "U", "NORAD_CAT_ID": 40336, "ELEMENT_SET_NO": 999, "REV_AT_EPOCH": 57847, "BSTAR": 0.00011227694, "MEAN_MOTION_DOT": 2.81e-06, "MEAN_MOTION_DDOT": 0}, "tle": {"line1": "1 40336U 14079A   25355.57713515  .00000281  00000+0  11228-3 0  9998", "line2": "2 40336  98.3300  53.2918 0001832 102.1362 258.0030 14.35521353578479"}}, "geometry": {"type": "Point", "coordinates": [48.63331740265373, 30.411484292082466]}}, {"type": "Feature", "properties": {"norad_id": 40362, "name": "YAOGAN-26", "group": "resource", "lat": 27.28982844304692, "lon": 179.87906877606804, "alt_km": 449.2941921574684, "timestamp": "2025-12-21T20:41:07.642901+00:00", "meta": {"OBJECT_NAME": "YAOGAN-26", "OBJECT_ID": "2014-088A", "EPOCH": "2025-12-21T13:47:10.853952", "MEAN_MOTION": 15.39582352, "ECCENTRICITY": 0.00050037, "INCLINATION": 97.0633, "RA_OF_ASC_NODE": 355.934, "ARG_OF_PERICENTER": 3.6462, "MEAN_ANOMALY": 356.482, "EPHEMERIS_TYPE": 0, "CLASSIFICATION_TYPE": "U", "NORAD_CAT_ID": 40362, "ELEMENT_SET_NO": 999, "REV_AT_EPOCH": 61030, "BSTAR": 0.00031067138, "MEAN_MOTION_DOT": 0.00012157, "MEAN_MOTION_DDOT": 0}, "tle": {"line1": "1 40362U 14088A   25355.57443118  .00012157  00000+0  31067-3 0  9994", "line2": "2 40362  97.0633 355.9340 0005003   3.6462 356.4820 15.39582352610304"}}, "geometry": {"type": "Point", "coordinates": [179.87906877606804, 27.28982844304692]}}, {"type": "Feature", "properties": {"norad_id": 40376, "name": "SMAP", "group": "resource", "lat": 64.94093691804278, "lon": -17.345350168888025, "alt_km": 675.2259296173434, "timestamp": "2025-12-21T20:41:07.642911+00:00", "meta": {"OBJECT_NAME": "SMAP", "OBJECT_ID": "2015-003A", "EPOCH": "2025-12-21T12:10:43.579776", "MEAN_MOTION": 14.63355199, "ECCENTRICITY": 0.00012289, "INCLINATION": 98.1288, "RA_OF_ASC_NODE": 0.1049, "ARG_OF_PERICENTER": 91.1808, "MEAN_ANOMALY": 268.9535, "EPHEMERIS_TYPE": 0, "CLASSIFICATION_TYPE": "U", "NORAD_CAT_ID": 40376, "ELEMENT_SET_NO": 999, "REV_AT_EPOCH": 58163, "BSTAR": 9.0860305e-05, "MEAN_MOTION_DOT": 4.22e-06, "MEAN_MOTION_DDOT": 0}, "tle": {"line1": "1 40376U 15003A   25355.50744884  .00000422  00000+0  90860-4 0  9993", "line2": "2 40376  98.1288   0.1049 0001228  91.1808 268.9535 14.63355199581639"}}, "geometry": {"type": "Point", "coordinates": [-17.345350168888025, 64.94093691804278]}}, {"type": "Feature", "properties": {"norad_id": 40536, "name": "KOMPSAT-3A", "group": "resource", "lat": -64.8093422452667, "lon": 134.04297738232933, "alt_km": 443.6893049608616, "timestamp": "2025-12-21T20:41:07.642921+00:00", "meta": {"OBJECT_NAME": "KOMPSAT-3A", "OBJECT_ID": "2015-014A", "EPOCH": "2025-12-21T13:24:12.983904", "MEAN_MOTION": 15.44243802, "ECCENTRICITY": 0.00055289, "INCLINATION": 97.6795, "RA_OF_ASC_NODE": 330.3937, "ARG_OF_PERICENTER": 107.259, "MEAN_ANOMALY": 252.9263, "EPHEMERIS_TYPE": 0, "CLASSIFICATION_TYPE": "U", "NORAD_CAT_ID": 40536, "ELEMENT_SET_NO": 999, "REV_AT_EPOCH": 59431, "BSTAR": 0.00035147999, "MEAN_MOTION_DOT": 0.00016079, "MEAN_MOTION_DDOT": 0}, "tle": {"line1": "1 40536U 15014A   25355.55848361  .00016079  00000+0  35148-3 0  9995", "line2": "2 40536  97.6795 330.3937 0005528 107.2590 252.9263 15.44243802594319"}}, "geometry": {"type": "Point", "coordinates": [134.04297738232933, -64.8093422452667]}}, {"type": "Feature", "properties": {"norad_id": 40697, "name": "SENTINEL-2A", "group": "resource", "lat": -51.43642718282424, "lon": 79.1753143061867, "alt_km": 796.5136492367737, "timestamp": "2025-12-21T20:41:07.642930+00:00", "meta": {"OBJECT_NAME": "SENTINEL-2A", "OBJECT_ID": "2015-028A", "EPOCH": "2025-12-21T14:12:57.470112", "MEAN_MOTION": 14.30809798, "ECCENTRICITY": 0.00010828, "INCLINATION": 98.5742, "RA_OF_ASC_NODE": 68.001, "ARG_OF_PERICENTER": 86.9219, "MEAN_ANOMALY": 273.2088, "EPHEMERIS_TYPE": 0, "CLASSIFICATION_TYPE": "U", "NORAD_CAT_ID": 40697, "ELEMENT_SET_NO": 999, "REV_AT_EPOCH": 54833, "BSTAR": 0.00018766508, "MEAN_MOTION_DOT": 4.48e-06, "MEAN_MOTION_DDOT": 0}, "tle": {"line1": "1 40697U 15028A   25355.59233183  .00000448  00000+0  18767-3 0  9993", "line2": "2 40697  98.5742  68.0010 0001082  86.9219 273.2088 14.30809798548336"}}, "geometry": {"type": "Point", "coordinates": [79.1753143061867, -51.43642718282424]}}]}